FLOCK 4BE-23            
1 60490U 24149Y   26188.66697311  .00009462  00000+0  25339-3 0  9998
2 60490  97.3770 271.1770 0003912 177.3071 182.8195 15.38226346105347
FLOCK 4BE-17            
1 60492U 24149AA  26189.20727571  .00010351  00000+0  25785-3 0  9997
2 60492  97.3765 272.7502 0003891 164.2016 195.9352 15.40423507105490
NUSAT-50 (NANCY ROMAN)  
1 60493U 24149AB  26189.03109066  .00005607  00000+0  19426-3 0  9995
2 60493  97.3780 270.1459 0004776 118.9041 241.2680 15.30232539105310
FLOCK 4BE-22            
1 60494U 24149AC  26188.78042733  .00012231  00000+0  29050-3 0  9999
2 60494  97.3725 272.5445 0004193 175.4124 184.7162 15.41823095105472
FLOCK 4BE-34            
1 60495U 24149AD  26189.18723978  .00010259  00000+0  24425-3 0  9991
2 60495  97.3776 273.7910 0004170 181.2042 178.9195 15.41798409105569
TYCHE                   
1 60496U 24149AE  26188.98884916  .00002595  00000+0  10396-3 0  9995
2 60496  97.3747 266.5265 0002771 176.5717 183.5541 15.25931841105076
FLOCK 4BE-32            
1 60497U 24149AF  26189.20640609  .00012680  00000+0  29041-3 0  9994
2 60497  97.3711 273.3706 0004334 179.3861 180.7392 15.42908017105578
NUSAT-48 (HENRIETTA LE*)
1 60498U 24149AG  26189.21608492  .00005191  00000+0  18030-3 0  9995
2 60498  97.3911 270.6097 0004166 179.8989 180.2253 15.30194794105356
NUSAT-49 (KLARA DAN VO*)
1 60500U 24149AJ  26188.73515149  .00005637  00000+0  19495-3 0  9992
2 60500  97.3772 269.8843 0001709 186.1553 173.9667 15.30298285105271
FLOCK 4BE-11            
1 60501U 24149AK  26188.80107242  .00012447  00000+0  27773-3 0  9997
2 60501  97.3691 273.2099 0004404 179.6010 180.5242 15.43691986105535
YAM-7                   
1 60504U 24149AN  26189.15505149  .00004654  00000+0  15261-3 0  9997
2 60504  97.3775 269.3225 0002928 191.8318 168.2856 15.32115497105264
FLOCK 4BE-24            
1 60505U 24149AP  26188.72095949  .00014674  00000+0  32481-3 0  9998
2 60505  97.3707 273.3935 0004417 193.1566 166.9568 15.43889466105539
LUR-1                   
1 60506U 24149AQ  26189.16893389  .00004481  00000+0  15510-3 0  9991
2 60506  97.3730 267.8479 0003266 208.8380 151.2681 15.30386303105188
TANAGER-1               
1 60507U 24149AR  26188.11232678  .00000341  00000+0  93231-5 0  9993
2 60507  97.2319 282.2964 0002809 175.8028 184.3245 15.44037810106113
EAGLEEYE                
1 60508U 24149AS  26188.78248602  .00100289  00000+0  66060-3 0  9991
2 60508  97.3703 283.3204 0004960 198.7418 161.3665 15.75342587106179
FLOCK 4BE-29            
1 60509U 24149AT  26189.04180615  .00027945  00000+0  59268-3 0  9990
2 60509  97.3802 275.2387 0002945 194.5091 165.6074 15.45027166105635
TRANSPORTER-11 OBJECT AU
1 60510U 24149AU  26189.10365603  .00009301  00000+0  22886-3 0  9993
2 60510  97.3722 272.9988 0003573 191.1312 168.9856 15.40830206105531
FLOCK 4BE-2             
1 60511U 24149AV  26189.18147998  .00043233  00000+0  63834-3 0  9997
2 60511  97.3822 277.1113 0005025 191.5817 168.5322 15.55223929105761
FLOCK 4BE-13            
1 60512U 24149AW  26189.17904745  .00009584  00000+0  22324-3 0  9998
2 60512  97.3713 273.8161 0004547 176.7892 183.3385 15.42476234105605
FLOCK 4BE-27            
1 60513U 24149AX  26189.19034498  .00006119  00000+0  18358-3 0  9993
2 60513  97.3818 271.0558 0003228 207.3134 152.7940 15.34829838105360
FLOCK 4BE-9             
1 60514U 24149AY  26188.73821531  .00011145  00000+0  26835-3 0  9999
2 60514  97.3784 273.2170 0002980 192.5638 167.5535 15.41438050105482
FLOCK 4BE-6             
1 60516U 24149BA  26189.04342862  .00009067  00000+0  22802-3 0  9991
2 60516  97.3782 272.8437 0003624 195.3162 164.7975 15.40174807105485
FLOCK 4BE-14            
1 60517U 24149BB  26188.74779167  .00011287  00000+0  26952-3 0  9997
2 60517  97.3687 272.7009 0004586 201.2982 158.8075 15.41681927105492
FLOCK 4BE-1             
1 60518U 24149BC  26189.19597178  .00011573  00000+0  26151-3 0  9997
2 60518  97.3771 274.5069 0004342 199.2903 160.8181 15.43334861105611
FLOCK 4BE-28            
1 60519U 24149BD  26187.23632372  .00025518  00000+0  52926-3 0  9990
2 60519  97.3771 273.3050 0004188 219.3554 140.7391 15.45698118105387
IPERDRONE.0             
1 60520U 24149BE  26187.25930828  .00093238  00000+0  77662-3 0  9999
2 60520  97.3767 281.4527 0004222 187.0911 173.0292 15.69808668105906
TRANSPORTER-11 OBJECT BF
1 60521U 24149BF  26188.82233888  .00475536  99956-4  93476-3 0  9995
2 60521  97.3754 286.5594 0007962 241.8619 118.1855 16.00049137106361
CONNECTA IOT-2          
1 60522U 24149BG  26189.05878132  .00002593  00000+0  10949-3 0  9999
2 60522  97.3830 266.8897 0005032 242.9090 117.1635 15.24154251105076
