OBJECT_NAME,OBJECT_ID,EPOCH,MEAN_MOTION,ECCENTRICITY,INCLINATION,RA_OF_ASC_NODE,ARG_OF_PERICENTER,MEAN_ANOMALY,EPHEMERIS_TYPE,CLASSIFICATION_TYPE,NORAD_CAT_ID,ELEMENT_SET_NO,REV_AT_EPOCH,BSTAR,MEAN_MOTION_DOT,MEAN_MOTION_DDOT
FLOCK 4BE-23,2024-149Y,2026-07-07T16:00:26.476704,15.38226346,.0003912,97.3770,271.1770,177.3071,182.8195,0,U,60490,999,10534,.25339E-3,.9462E-4,0
FLOCK 4BE-17,2024-149AA,2026-07-08T04:58:28.621344,15.40423507,.0003891,97.3765,272.7502,164.2016,195.9352,0,U,60492,999,10549,.25785E-3,.10351E-3,0
NUSAT-50 (NANCY ROMAN),2024-149AB,2026-07-08T00:44:46.233024,15.30232539,.0004776,97.3780,270.1459,118.9041,241.2680,0,U,60493,999,10531,.19426E-3,.5607E-4,0
FLOCK 4BE-22,2024-149AC,2026-07-07T18:43:48.921312,15.41823095,.0004193,97.3725,272.5445,175.4124,184.7162,0,U,60494,999,10547,.2905E-3,.12231E-3,0
FLOCK 4BE-34,2024-149AD,2026-07-08T04:29:37.516992,15.41798409,.000417,97.3776,273.7910,181.2042,178.9195,0,U,60495,999,10556,.24425E-3,.10259E-3,0
TYCHE,2024-149AE,2026-07-07T23:43:56.567424,15.25931841,.0002771,97.3747,266.5265,176.5717,183.5541,0,U,60496,999,10507,.10396E-3,.2595E-4,0
FLOCK 4BE-32,2024-149AF,2026-07-08T04:57:13.486176,15.42908017,.0004334,97.3711,273.3706,179.3861,180.7392,0,U,60497,999,10557,.29041E-3,.1268E-3,0
NUSAT-48 (HENRIETTA LEAVITT),2024-149AG,2026-07-08T05:11:09.737088,15.30194794,.0004166,97.3911,270.6097,179.8989,180.2253,0,U,60498,999,10535,.1803E-3,.5191E-4,0
NUSAT-49 (KLARA DAN VON NEUMANN),2024-149AJ,2026-07-07T17:38:37.088736,15.30298285,.0001709,97.3772,269.8843,186.1553,173.9667,0,U,60500,999,10527,.19495E-3,.5637E-4,0
FLOCK 4BE-11,2024-149AK,2026-07-07T19:13:32.657088,15.43691986,.0004404,97.3691,273.2099,179.6010,180.5242,0,U,60501,999,10553,.27773E-3,.12447E-3,0
YAM-7,2024-149AN,2026-07-08T03:43:16.448736,15.32115497,.0002928,97.3775,269.3225,191.8318,168.2856,0,U,60504,999,10526,.15261E-3,.4654E-4,0
FLOCK 4BE-24,2024-149AP,2026-07-07T17:18:10.899936,15.43889466,.0004417,97.3707,273.3935,193.1566,166.9568,0,U,60505,999,10553,.32481E-3,.14674E-3,0
LUR-1,2024-149AQ,2026-07-08T04:03:15.888096,15.30386303,.0003266,97.3730,267.8479,208.8380,151.2681,0,U,60506,999,10518,.1551E-3,.4481E-4,0
TANAGER-1,2024-149AR,2026-07-07T02:41:45.033792,15.44037810,.00028093,97.2319,282.2964,175.8028,184.3245,0,U,60507,999,10611,.9323054E-5,.341E-5,0
EAGLEEYE,2024-149AS,2026-07-07T18:46:46.792128,15.75342587,.000496,97.3703,283.3204,198.7418,161.3665,0,U,60508,999,10617,.6606E-3,.100289E-2,0
FLOCK 4BE-29,2024-149AT,2026-07-08T01:00:12.051360,15.45027166,.0002945,97.3802,275.2387,194.5091,165.6074,0,U,60509,999,10563,.59268E-3,.27945E-3,0
TRANSPORTER-11 OBJECT AU,2024-149AU,2026-07-08T02:29:15.880992,15.40830206,.0003573,97.3722,272.9988,191.1312,168.9856,0,U,60510,999,10553,.22886E-3,.9301E-4,0
FLOCK 4BE-2,2024-149AV,2026-07-08T04:21:19.870272,15.55223929,.0005025,97.3822,277.1113,191.5817,168.5322,0,U,60511,999,10576,.63834E-3,.43233E-3,0
FLOCK 4BE-13,2024-149AW,2026-07-08T04:17:49.699680,15.42476234,.0004547,97.3713,273.8161,176.7892,183.3385,0,U,60512,999,10560,.22324E-3,.9584E-4,0
FLOCK 4BE-27,2024-149AX,2026-07-08T04:34:05.806272,15.34829838,.0003228,97.3818,271.0558,207.3134,152.7940,0,U,60513,999,10536,.18358E-3,.6119E-4,0
FLOCK 4BE-9,2024-149AY,2026-07-07T17:43:01.802784,15.41438050,.000298,97.3784,273.2170,192.5638,167.5535,0,U,60514,999,10548,.26835E-3,.11145E-3,0
FLOCK 4BE-6,2024-149BA,2026-07-08T01:02:32.232768,15.40174807,.0003624,97.3782,272.8437,195.3162,164.7975,0,U,60516,999,10548,.22802E-3,.9067E-4,0
FLOCK 4BE-14,2024-149BB,2026-07-07T17:56:49.200288,15.41681927,.0004586,97.3687,272.7009,201.2982,158.8075,0,U,60517,999,10549,.26952E-3,.11287E-3,0
FLOCK 4BE-1,2024-149BC,2026-07-08T04:42:11.961792,15.43334861,.0004342,97.3771,274.5069,199.2903,160.8181,0,U,60518,999,10561,.26151E-3,.11573E-3,0
FLOCK 4BE-28,2024-149BD,2026-07-06T05:40:18.369408,15.45698118,.00041881,97.3771,273.3050,219.3554,140.7391,0,U,60519,999,10538,.52926037E-3,.25518E-3,0
IPERDRONE.0,2024-149BE,2026-07-06T06:13:24.235392,15.69808668,.00042223,97.3767,281.4527,187.0911,173.0292,0,U,60520,999,10590,.77662499E-3,.93238E-3,0
TRANSPORTER-11 OBJECT BF,2024-149BF,2026-07-07T19:44:10.079232,16.00049137,.0007962,97.3754,286.5594,241.8619,118.1855,0,U,60521,999,10636,.93476E-3,.475536E-2,.99956E-4
CONNECTA IOT-2,2024-149BG,2026-07-08T01:24:38.706048,15.24154251,.0005032,97.3830,266.8897,242.9090,117.1635,0,U,60522,999,10507,.10949E-3,.2593E-4,0
